{"type": "FeatureCollection", "features": [ {"type": "Feature", "properties": {"norad_id": 66998, "name": "2025-292F", "group": "last-30-days", "lat": -71.9555402118577, "lon": 89.47016749435949, "alt_km": 550.4629990129861, "timestamp": "2025-12-18T13:51:48.382266+00:00", "meta": {"OBJECT_NAME": "2025-292F", "OBJECT_ID": "2025-292F", "EPOCH": "2025-12-18T06:12:38.702592", "MEAN_MOTION": 15.04883543, "ECCENTRICITY": 0.00145379, "INCLINATION": 97.6567, "RA_OF_ASC_NODE": 64.7641, "ARG_OF_PERICENTER": 257.1886, "MEAN_ANOMALY": 102.7716, "EPHEMERIS_TYPE": 0, "CLASSIFICATION_TYPE": "U", "NORAD_CAT_ID": 66998, "ELEMENT_SET_NO": 999, "REV_AT_EPOCH": 122, "BSTAR": 0.00033031096, "MEAN_MOTION_DOT": 4.621e-05, "MEAN_MOTION_DDOT": 0}, "tle": {"line1": "1 66998U 25292F   25352.25878128  .00004621  00000+0  33031-3 0  9991", "line2": "2 66998  97.6567  64.7641 0014537 257.1886 102.7716 15.04883543  1225"}}, "geometry": {"type": "Point", "coordinates": [89.47016749435949, -71.9555402118577]}}, {"type": "Feature", "properties": {"norad_id": 66999, "name": "2025-292G", "group": "last-30-days", "lat": -70.21841975856198, "lon": 87.04958076912288, "alt_km": 550.5219304510556, "timestamp": "2025-12-18T13:51:48.382277+00:00", "meta": {"OBJECT_NAME": "2025-292G", "OBJECT_ID": "2025-292G", "EPOCH": "2025-12-18T06:12:09.400896", "MEAN_MOTION": 15.04947286, "ECCENTRICITY": 0.00140565, "INCLINATION": 97.6575, "RA_OF_ASC_NODE": 64.7654, "ARG_OF_PERICENTER": 259.3232, "MEAN_ANOMALY": 100.6412, "EPHEMERIS_TYPE": 0, "CLASSIFICATION_TYPE": "U", "NORAD_CAT_ID": 66999, "ELEMENT_SET_NO": 999, "REV_AT_EPOCH": 122, "BSTAR": 0.00032992262, "MEAN_MOTION_DOT": 4.623e-05, "MEAN_MOTION_DDOT": 0}, "tle": {"line1": "1 66999U 25292G   25352.25844214  .00004623  00000+0  32992-3 0  9998", "line2": "2 66999  97.6575  64.7654 0014056 259.3232 100.6412 15.04947286  1229"}}, "geometry": {"type": "Point", "coordinates": [87.04958076912288, -70.21841975856198]}}, {"type": "Feature", "properties": {"norad_id": 67000, "name": "2025-292H", "group": "last-30-days", "lat": -70.21943316965333, "lon": 87.05160629899143, "alt_km": 550.5200197257582, "timestamp": "2025-12-18T13:51:48.382287+00:00", "meta": {"OBJECT_NAME": "2025-292H", "OBJECT_ID": "2025-292H", "EPOCH": "2025-12-17T15:50:27.314304", "MEAN_MOTION": 15.04941506, "ECCENTRICITY": 0.00140318, "INCLINATION": 97.6577, "RA_OF_ASC_NODE": 64.1722, "ARG_OF_PERICENTER": 261.5567, "MEAN_ANOMALY": 98.4069, "EPHEMERIS_TYPE": 0, "CLASSIFICATION_TYPE": "U", "NORAD_CAT_ID": 67000, "ELEMENT_SET_NO": 999, "REV_AT_EPOCH": 100, "BSTAR": 0.00033244641, "MEAN_MOTION_DOT": 4.658e-05, "MEAN_MOTION_DDOT": 0}, "tle": {"line1": "1 67000U 25292H   25351.66003836  .00004658  00000+0  33245-3 0  9993", "line2": "2 67000  97.6577  64.1722 0014031 261.5567  98.4069 15.04941506  1001"}}, "geometry": {"type": "Point", "coordinates": [87.05160629899143, -70.21943316965333]}}, {"type": "Feature", "properties": {"norad_id": 67001, "name": "2025-292J", "group": "last-30-days", "lat": -82.31110830733579, "lon": 150.2428449024516, "alt_km": 551.7754161587636, "timestamp": "2025-12-18T13:51:48.382298+00:00", "meta": {"OBJECT_NAME": "2025-292J", "OBJECT_ID": "2025-292J", "EPOCH": "2025-12-18T06:16:40.918080", "MEAN_MOTION": 15.04362461, "ECCENTRICITY": 0.00142515, "INCLINATION": 97.6567, "RA_OF_ASC_NODE": 64.7604, "ARG_OF_PERICENTER": 247.923, "MEAN_ANOMALY": 112.0483, "EPHEMERIS_TYPE": 0, "CLASSIFICATION_TYPE": "U", "NORAD_CAT_ID": 67001, "ELEMENT_SET_NO": 999, "REV_AT_EPOCH": 122, "BSTAR": 0.00035051848, "MEAN_MOTION_DOT": 4.839e-05, "MEAN_MOTION_DDOT": 0}, "tle": {"line1": "1 67001U 25292J   25352.26158470  .00004839  00000+0  35052-3 0  9995", "line2": "2 67001  97.6567  64.7604 0014251 247.9230 112.0483 15.04362461  1229"}}, "geometry": {"type": "Point", "coordinates": [150.2428449024516, -82.31110830733579]}}, {"type": "Feature", "properties": {"norad_id": 67002, "name": "ZK-1A R/B", "group": "last-30-days", "lat": 1.8972512992819386, "lon": 65.57302542792611, "alt_km": 262.6153687198048, "timestamp": "2025-12-18T13:51:48.382311+00:00", "meta": {"OBJECT_NAME": "ZK-1A R/B", "OBJECT_ID": "2025-292K", "EPOCH": "2025-12-18T04:35:51.387936", "MEAN_MOTION": 15.56337794, "ECCENTRICITY": 0.0213767, "INCLINATION": 97.7234, "RA_OF_ASC_NODE": 65.4127, "ARG_OF_PERICENTER": 345.9205, "MEAN_ANOMALY": 13.6145, "EPHEMERIS_TYPE": 0, "CLASSIFICATION_TYPE": "U", "NORAD_CAT_ID": 67002, "ELEMENT_SET_NO": 999, "REV_AT_EPOCH": 124, "BSTAR": 0.00073146183, "MEAN_MOTION_DOT": 0.00151802, "MEAN_MOTION_DDOT": 8.225292e-06}, "tle": {"line1": "1 67002U 25292K   25352.19156699  .00151802  82253-5  73146-3 0  9994", "line2": "2 67002  97.7234  65.4127 0213767 345.9205  13.6145 15.56337794  1245"}}, "geometry": {"type": "Point", "coordinates": [65.57302542792611, 1.8972512992819386]}}, {"type": "Feature", "properties": {"norad_id": 67059, "name": "HULIANWANG DIGUI 16A", "group": "last-30-days", "lat": -46.26022030336801, "lon": -73.71049657966572, "alt_km": 801.5958397029999, "timestamp": "2025-12-18T13:51:48.382322+00:00", "meta": {"OBJECT_NAME": "HULIANWANG DIGUI 16A", "OBJECT_ID": "2025-295A", "EPOCH": "2025-12-17T11:16:29.850816", "MEAN_MOTION": 14.25569756, "ECCENTRICITY": 0.00138963, "INCLINATION": 50.007, "RA_OF_ASC_NODE": 352.2731, "ARG_OF_PERICENTER": 264.5159, "MEAN_ANOMALY": 95.417, "EPHEMERIS_TYPE": 0, "CLASSIFICATION_TYPE": "U", "NORAD_CAT_ID": 67059, "ELEMENT_SET_NO": 999, "REV_AT_EPOCH": 79, "BSTAR": -9.003402e-06, "MEAN_MOTION_DOT": -1.82e-06, "MEAN_MOTION_DDOT": 0}, "tle": {"line1": "1 67059U 25295A   25351.46978994 -.00000182  00000+0 -90034-5 0  9995", "line2": "2 67059  50.0070 352.2731 0013896 264.5159  95.4170 14.25569756   795"}}, "geometry": {"type": "Point", "coordinates": [-73.71049657966572, -46.26022030336801]}}, {"type": "Feature", "properties": {"norad_id": 67060, "name": "HULIANWANG DIGUI 16B", "group": "last-30-days", "lat": -44.99440007972693, "lon": -69.48111511594756, "alt_km": 801.8210517168654, "timestamp": "2025-12-18T13:51:48.382333+00:00", "meta": {"OBJECT_NAME": "HULIANWANG DIGUI 16B", "OBJECT_ID": "2025-295B", "EPOCH": "2025-12-15T17:12:24.401376", "MEAN_MOTION": 14.25706335, "ECCENTRICITY": 0.00132237, "INCLINATION": 50.005, "RA_OF_ASC_NODE": 359.6709, "ARG_OF_PERICENTER": 257.265, "MEAN_ANOMALY": 102.6786, "EPHEMERIS_TYPE": 0, "CLASSIFICATION_TYPE": "U", "NORAD_CAT_ID": 67060, "ELEMENT_SET_NO": 999, "REV_AT_EPOCH": 54, "BSTAR": 6.6896441e-05, "MEAN_MOTION_DOT": 0, "MEAN_MOTION_DDOT": 0}, "tle": {"line1": "1 67060U 25295B   25349.71694909  .00000000  00000+0  66896-4 0  9998", "line2": "2 67060  50.0050 359.6709 0013223 257.2650 102.6786 14.25706335   543"}}, "geometry": {"type": "Point", "coordinates": [-69.48111511594756, -44.99440007972693]}}, {"type": "Feature", "properties": {"norad_id": 67061, "name": "HULIANWANG DIGUI 16C", "group": "last-30-days", "lat": -44.83793277772791, "lon": -69.02588182414235, "alt_km": 801.8030486802718, "timestamp": "2025-12-18T13:51:48.382345+00:00", "meta": {"OBJECT_NAME": "HULIANWANG DIGUI 16C", "OBJECT_ID": "2025-295C", "EPOCH": "2025-12-15T17:12:22.292352", "MEAN_MOTION": 14.25729079, "ECCENTRICITY": 0.00132682, "INCLINATION": 50.0012, "RA_OF_ASC_NODE": 359.6606, "ARG_OF_PERICENTER": 256.3366, "MEAN_ANOMALY": 103.6071, "EPHEMERIS_TYPE": 0, "CLASSIFICATION_TYPE": "U", "NORAD_CAT_ID": 67061, "ELEMENT_SET_NO": 999, "REV_AT_EPOCH": 54, "BSTAR": 6.6638352e-05, "MEAN_MOTION_DOT": -1e-08, "MEAN_MOTION_DDOT": 0}, "tle": {"line1": "1 67061U 25295C   25349.71692468 -.00000001  00000+0  66638-4 0  9993", "line2": "2 67061  50.0012 359.6606 0013268 256.3366 103.6071 14.25729079   549"}}, "geometry": {"type": "Point", "coordinates": [-69.02588182414235, -44.83793277772791]}}, {"type": "Feature", "properties": {"norad_id": 67062, "name": "HULIANWANG DIGUI 16D", "group": "last-30-days", "lat": -44.51474560854223, "lon": -68.0391275596739, "alt_km": 801.3419347730196, "timestamp": "2025-12-18T13:51:48.382356+00:00", "meta": {"OBJECT_NAME": "HULIANWANG DIGUI 16D", "OBJECT_ID": "2025-295D", "EPOCH": "2025-12-18T07:26:38.897088", "MEAN_MOTION": 14.25754517, "ECCENTRICITY": 0.00131626, "INCLINATION": 50.0054, "RA_OF_ASC_NODE": 348.7173, "ARG_OF_PERICENTER": 272.8217, "MEAN_ANOMALY": 87.1191, "EPHEMERIS_TYPE": 0, "CLASSIFICATION_TYPE": "U", "NORAD_CAT_ID": 67062, "ELEMENT_SET_NO": 999, "REV_AT_EPOCH": 91, "BSTAR": 0.0001472695, "MEAN_MOTION_DOT": 1.92e-06, "MEAN_MOTION_DDOT": 0}, "tle": {"line1": "1 67062U 25295D   25352.31017242  .00000192  00000+0  14727-3 0  9996", "line2": "2 67062  50.0054 348.7173 0013162 272.8217  87.1191 14.25754517   910"}}, "geometry": {"type": "Point", "coordinates": [-68.0391275596739, -44.51474560854223]}}, {"type": "Feature", "properties": {"norad_id": 67063, "name": "HULIANWANG DIGUI 16E", "group": "last-30-days", "lat": -43.086928986765614, "lon": -64.1541265608383, "alt_km": 801.5331014365911, "timestamp": "2025-12-18T13:51:48.382366+00:00", "meta": {"OBJECT_NAME": "HULIANWANG DIGUI 16E", "OBJECT_ID": "2025-295E", "EPOCH": "2025-12-18T07:25:48.255456", "MEAN_MOTION": 14.25887385, "ECCENTRICITY": 0.00124787, "INCLINATION": 50.0061, "RA_OF_ASC_NODE": 348.7166, "ARG_OF_PERICENTER": 271.9809, "MEAN_ANOMALY": 87.9676, "EPHEMERIS_TYPE": 0, "CLASSIFICATION_TYPE": "U", "NORAD_CAT_ID": 67063, "ELEMENT_SET_NO": 999, "REV_AT_EPOCH": 91, "BSTAR": 0.00015479437, "MEAN_MOTION_DOT": 2.11e-06, "MEAN_MOTION_DDOT": 0}, "tle": {"line1": "1 67063U 25295E   25352.30958629  .00000211  00000+0  15479-3 0  9996", "line2": "2 67063  50.0061 348.7166 0012478 271.9809  87.9676 14.25887385   913"}}, "geometry": {"type": "Point", "coordinates": [-64.1541265608383, -43.086928986765614]}}]}